[{"OBJECT_NAME":"ONEWEB-0034","OBJECT_ID":"2020-020AG","EPOCH":"2025-08-13T13:45:26.071488","MEAN_MOTION":13.11418589,"ECCENTRICITY":0.0001757,"INCLINATION":87.8798,"RA_OF_ASC_NODE":82.3566,"ARG_OF_PERICENTER":81.7269,"MEAN_ANOMALY":278.4058,"EPHEMERIS_TYPE":0,"CLASSIFICATION_TYPE":"U","NORAD_CAT_ID":45454,"ELEMENT_SET_NO":999,"REV_AT_EPOCH":26227,"BSTAR":-8.6454e-7,"MEAN_MOTION_DOT":1.2e-7,"MEAN_MOTION_DDOT":0},{"OBJECT_NAME":"ONEWEB-0060","OBJECT_ID":"2020-020AH","EPOCH":"2025-08-13T13:03:58.237920","MEAN_MOTION":13.1140898,"ECCENTRICITY":0.0002771,"INCLINATION":87.8791,"RA_OF_ASC_NODE":82.391,"ARG_OF_PERICENTER":67.6674,"MEAN_ANOMALY":292.4748,"EPHEMERIS_TYPE":0,"CLASSIFICATION_TYPE":"U","NORAD_CAT_ID":45455,"ELEMENT_SET_NO":999,"REV_AT_EPOCH":26222,"BSTAR":0.0026829,"MEAN_MOTION_DOT":9.64e-6,"MEAN_MOTION_DDOT":0},{"OBJECT_NAME":"ONEWEB-0086","OBJECT_ID":"2020-020AJ","EPOCH":"2025-08-13T14:23:18.559968","MEAN_MOTION":13.11415908,"ECCENTRICITY":0.0002092,"INCLINATION":87.8798,"RA_OF_ASC_NODE":82.3486,"ARG_OF_PERICENTER":63.5887,"MEAN_ANOMALY":296.5456,"EPHEMERIS_TYPE":0,"CLASSIFICATION_TYPE":"U","NORAD_CAT_ID":45456,"ELEMENT_SET_NO":999,"REV_AT_EPOCH":26229,"BSTAR":0.0016141,"MEAN_MOTION_DOT":5.85e-6,"MEAN_MOTION_DDOT":0},{"OBJECT_NAME":"ONEWEB-0088","OBJECT_ID":"2020-020AK","EPOCH":"2025-08-13T13:51:32.258880","MEAN_MOTION":13.11417999,"ECCENTRICITY":0.000186,"INCLINATION":87.8795,"RA_OF_ASC_NODE":82.2996,"ARG_OF_PERICENTER":85.7602,"MEAN_ANOMALY":274.3738,"EPHEMERIS_TYPE":0,"CLASSIFICATION_TYPE":"U","NORAD_CAT_ID":45457,"ELEMENT_SET_NO":999,"REV_AT_EPOCH":26222,"BSTAR":0.00050255,"MEAN_MOTION_DOT":1.91e-6,"MEAN_MOTION_DDOT":0},{"OBJECT_NAME":"ONEWEB-0102","OBJECT_ID":"2020-100A","EPOCH":"2025-08-13T14:15:26.671680","MEAN_MOTION":13.12440768,"ECCENTRICITY":0.0001596,"INCLINATION":87.8851,"RA_OF_ASC_NODE":51.8224,"ARG_OF_PERICENTER":87.7936,"MEAN_ANOMALY":272.3375,"EPHEMERIS_TYPE":0,"CLASSIFICATION_TYPE":"U","NORAD_CAT_ID":47258,"ELEMENT_SET_NO":999,"REV_AT_EPOCH":22438,"BSTAR":0.00089222,"MEAN_MOTION_DOT":3.34e-6,"MEAN_MOTION_DDOT":0},{"OBJECT_NAME":"ONEWEB-0109","OBJECT_ID":"2020-100B","EPOCH":"2025-08-13T12:37:20.783136","MEAN_MOTION":13.12441423,"ECCENTRICITY":0.0001642,"INCLINATION":87.8853,"RA_OF_ASC_NODE":51.8058,"ARG_OF_PERICENTER":86.4476,"MEAN_ANOMALY":273.684,"EPHEMERIS_TYPE":0,"CLASSIFICATION_TYPE":"U","NORAD_CAT_ID":47259,"ELEMENT_SET_NO":999,"REV_AT_EPOCH":22420,"BSTAR":3.4625e-5,"MEAN_MOTION_DOT":2.5e-7,"MEAN_MOTION_DDOT":0},{"OBJECT_NAME":"ONEWEB-0110","OBJECT_ID":"2020-100C","EPOCH":"2025-08-13T13:14:41.854848","MEAN_MOTION":13.12444068,"ECCENTRICITY":0.0001892,"INCLINATION":87.8857,"RA_OF_ASC_NODE":51.7841,"ARG_OF_PERICENTER":81.2073,"MEAN_ANOMALY":278.927,"EPHEMERIS_TYPE":0,"CLASSIFICATION_TYPE":"U","NORAD_CAT_ID":47260,"ELEMENT_SET_NO":999,"REV_AT_EPOCH":22437,"BSTAR":-0.00096201,"MEAN_MOTION_DOT":-3.33e-6,"MEAN_MOTION_DDOT":0},{"OBJECT_NAME":"ONEWEB-0111","OBJECT_ID":"2020-100D","EPOCH":"2025-08-13T13:59:05.223840","MEAN_MOTION":13.12443742,"ECCENTRICITY":0.0001716,"INCLINATION":87.8861,"RA_OF_ASC_NODE":51.7941,"ARG_OF_PERICENTER":88.5731,"MEAN_ANOMALY":271.5594,"EPHEMERIS_TYPE":0,"CLASSIFICATION_TYPE":"U","NORAD_CAT_ID":47261,"ELEMENT_SET_NO":999,"REV_AT_EPOCH":22421,"BSTAR":0.0011366,"MEAN_MOTION_DOT":4.22e-6,"MEAN_MOTION_DDOT":0},{"OBJECT_NAME":"ONEWEB-0114","OBJECT_ID":"2020-100E","EPOCH":"2025-08-13T12:53:40.236864","MEAN_MOTION":13.12441119,"ECCENTRICITY":0.0001431,"INCLINATION":87.8844,"RA_OF_ASC_NODE":51.7992,"ARG_OF_PERICENTER":92.286,"MEAN_ANOMALY":267.8432,"EPHEMERIS_TYPE":0,"CLASSIFICATION_TYPE":"U","NORAD_CAT_ID":47262,"ELEMENT_SET_NO":999,"REV_AT_EPOCH":22416,"BSTAR":-0.00088951,"MEAN_MOTION_DOT":-3.07e-6,"MEAN_MOTION_DDOT":0},{"OBJECT_NAME":"ONEWEB-0117","OBJECT_ID":"2020-100F","EPOCH":"2025-08-13T12:42:00.155808","MEAN_MOTION":13.12440886,"ECCENTRICITY":0.000179,"INCLINATION":87.886,"RA_OF_ASC_NODE":51.7962,"ARG_OF_PERICENTER":88.2396,"MEAN_ANOMALY":271.8938,"EPHEMERIS_TYPE":0,"CLASSIFICATION_TYPE":"U","NORAD_CAT_ID":47263,"ELEMENT_SET_NO":999,"REV_AT_EPOCH":22417,"BSTAR":-0.0001494,"MEAN_MOTION_DOT":-4.1e-7,"MEAN_MOTION_DDOT":0},{"OBJECT_NAME":"ONEWEB-0118","OBJECT_ID":"2020-100G","EPOCH":"2025-08-13T13:28:43.210272","MEAN_MOTION":13.1244416,"ECCENTRICITY":0.0001585,"INCLINATION":87.8858,"RA_OF_ASC_NODE":51.79,"ARG_OF_PERICENTER":100.4765,"MEAN_ANOMALY":259.6542,"EPHEMERIS_TYPE":0,"CLASSIFICATION_TYPE":"U","NORAD_CAT_ID":47264,"ELEMENT_SET_NO":999,"REV_AT_EPOCH":22437,"BSTAR":-0.00033927,"MEAN_MOTION_DOT":-1.09e-6,"MEAN_MOTION_DDOT":0},{"OBJECT_NAME":"ONEWEB-0119","OBJECT_ID":"2020-100H","EPOCH":"2025-08-13T12:18:39.874464","MEAN_MOTION":13.12441683,"ECCENTRICITY":0.0001735,"INCLINATION":87.8852,"RA_OF_ASC_NODE":51.8383,"ARG_OF_PERICENTER":87.1116,"MEAN_ANOMALY":273.0211,"EPHEMERIS_TYPE":0,"CLASSIFICATION_TYPE":"U","NORAD_CAT_ID":47265,"ELEMENT_SET_NO":999,"REV_AT_EPOCH":22434,"BSTAR":0.0011134,"MEAN_MOTION_DOT":4.13e-6,"MEAN_MOTION_DDOT":0},{"OBJECT_NAME":"ONEWEB-0120","OBJECT_ID":"2020-100J","EPOCH":"2025-08-13T12:51:32.286240","MEAN_MOTION":13.12440579,"ECCENTRICITY":0.0001608,"INCLINATION":87.8863,"RA_OF_ASC_NODE":51.8319,"ARG_OF_PERICENTER":89.2637,"MEAN_ANOMALY":270.8676,"EPHEMERIS_TYPE":0,"CLASSIFICATION_TYPE":"U","NORAD_CAT_ID":47266,"ELEMENT_SET_NO":999,"REV_AT_EPOCH":22437,"BSTAR":-0.00072265,"MEAN_MOTION_DOT":-2.47e-6,"MEAN_MOTION_DDOT":0},{"OBJECT_NAME":"ONEWEB-0121","OBJECT_ID":"2020-100K","EPOCH":"2025-08-13T14:24:47.947680","MEAN_MOTION":13.12441966,"ECCENTRICITY":0.0001811,"INCLINATION":87.8856,"RA_OF_ASC_NODE":51.7878,"ARG_OF_PERICENTER":86.348,"MEAN_ANOMALY":273.7856,"EPHEMERIS_TYPE":0,"CLASSIFICATION_TYPE":"U","NORAD_CAT_ID":47267,"ELEMENT_SET_NO":999,"REV_AT_EPOCH":22429,"BSTAR":0.00021493,"MEAN_MOTION_DOT":9.0e-7,"MEAN_MOTION_DDOT":0},{"OBJECT_NAME":"ONEWEB-0122","OBJECT_ID":"2020-100L","EPOCH":"2025-08-13T14:17:34.776960","MEAN_MOTION":13.12440808,"ECCENTRICITY":0.0001675,"INCLINATION":87.885,"RA_OF_ASC_NODE":51.792,"ARG_OF_PERICENTER":84.3437,"MEAN_ANOMALY":275.7882,"EPHEMERIS_TYPE":0,"CLASSIFICATION_TYPE":"U","NORAD_CAT_ID":47268,"ELEMENT_SET_NO":999,"REV_AT_EPOCH":22420,"BSTAR":0.0008797,"MEAN_MOTION_DOT":3.29e-6,"MEAN_MOTION_DDOT":0},{"OBJECT_NAME":"ONEWEB-0123","OBJECT_ID":"2020-100M","EPOCH":"2025-08-13T14:10:46.184448","MEAN_MOTION":13.12447252,"ECCENTRICITY":0.0001777,"INCLINATION":87.8851,"RA_OF_ASC_NODE":51.8209,"ARG_OF_PERICENTER":93.589,"MEAN_ANOMALY":266.5442,"EPHEMERIS_TYPE":0,"CLASSIFICATION_TYPE":"U","NORAD_CAT_ID":47269,"ELEMENT_SET_NO":999,"REV_AT_EPOCH":22434,"BSTAR":0.0010719,"MEAN_MOTION_DOT":3.98e-6,"MEAN_MOTION_DDOT":0},{"OBJECT_NAME":"ONEWEB-0124","OBJECT_ID":"2020-100N","EPOCH":"2025-08-13T13:54:25.287840","MEAN_MOTION":13.12443259,"ECCENTRICITY":0.0001951,"INCLINATION":87.8861,"RA_OF_ASC_NODE":51.8236,"ARG_OF_PERICENTER":88.2251,"MEAN_ANOMALY":271.9101,"EPHEMERIS_TYPE":0,"CLASSIFICATION_TYPE":"U","NORAD_CAT_ID":47270,"ELEMENT_SET_NO":999,"REV_AT_EPOCH":22422,"BSTAR":0.0010135,"MEAN_MOTION_DOT":3.77e-6,"MEAN_MOTION_DDOT":0}]
