ONEWEB-0034             
1 45454U 20020AG  25225.57321842  .00000012  00000+0 -86454-6 0  9990
2 45454  87.8798  82.3566 0001757  81.7269 278.4058 13.11418589262278
ONEWEB-0060             
1 45455U 20020AH  25225.54442405  .00000964  00000+0  26829-2 0  9998
2 45455  87.8791  82.3910 0002771  67.6674 292.4748 13.11408980262226
ONEWEB-0086             
1 45456U 20020AJ  25225.59952037  .00000585  00000+0  16141-2 0  9996
2 45456  87.8798  82.3486 0002092  63.5887 296.5456 13.11415908262295
ONEWEB-0088             
1 45457U 20020AK  25225.57745670  .00000191  00000+0  50255-3 0  9996
2 45457  87.8795  82.2996 0001860  85.7602 274.3738 13.11417999262223
ONEWEB-0102             
1 47258U 20100A   25225.59405870  .00000334  00000+0  89222-3 0  9998
2 47258  87.8851  51.8224 0001596  87.7936 272.3375 13.12440768224382
ONEWEB-0109             
1 47259U 20100B   25225.52593499  .00000025  00000+0  34625-4 0  9992
2 47259  87.8853  51.8058 0001642  86.4476 273.6840 13.12441423224208
ONEWEB-0110             
1 47260U 20100C   25225.55187332 -.00000333  00000+0 -96201-3 0  9993
2 47260  87.8857  51.7841 0001892  81.2073 278.9270 13.12444068224377
ONEWEB-0111             
1 47261U 20100D   25225.58269935  .00000422  00000+0  11366-2 0  9992
2 47261  87.8861  51.7941 0001716  88.5731 271.5594 13.12443742224219
ONEWEB-0114             
1 47262U 20100E   25225.53727126 -.00000307  00000+0 -88951-3 0  9998
2 47262  87.8844  51.7992 0001431  92.2860 267.8432 13.12441119224165
ONEWEB-0117             
1 47263U 20100F   25225.52916847 -.00000041  00000+0 -14940-3 0  9990
2 47263  87.8860  51.7962 0001790  88.2396 271.8938 13.12440886224175
ONEWEB-0118             
1 47264U 20100G   25225.56161123 -.00000109  00000+0 -33927-3 0  9995
2 47264  87.8858  51.7900 0001585 100.4765 259.6542 13.12444160224370
ONEWEB-0119             
1 47265U 20100H   25225.51296151  .00000413  00000+0  11134-2 0  9992
2 47265  87.8852  51.8383 0001735  87.1116 273.0211 13.12441683224346
ONEWEB-0120             
1 47266U 20100J   25225.53579035 -.00000247  00000+0 -72265-3 0  9990
2 47266  87.8863  51.8319 0001608  89.2637 270.8676 13.12440579224374
ONEWEB-0121             
1 47267U 20100K   25225.60055495  .00000090  00000+0  21493-3 0  9999
2 47267  87.8856  51.7878 0001811  86.3480 273.7856 13.12441966224290
ONEWEB-0122             
1 47268U 20100L   25225.59554140  .00000329  00000+0  87970-3 0  9996
2 47268  87.8850  51.7920 0001675  84.3437 275.7882 13.12440808224207
ONEWEB-0123             
1 47269U 20100M   25225.59081232  .00000398  00000+0  10719-2 0  9996
2 47269  87.8851  51.8209 0001777  93.5890 266.5442 13.12447252224343
ONEWEB-0124             
1 47270U 20100N   25225.57945935  .00000377  00000+0  10135-2 0  9994
2 47270  87.8861  51.8236 0001951  88.2251 271.9101 13.12443259224224
